{
  "type": "FeatureCollection",
  "features": [
    {
      "type": "Feature",
      "properties": {
        "norad_id": 34752,
        "name": "COSMOS 2251 DEB",
        "group": "cosmos-2251-debris",
        "lat": -3.352396489239794,
        "lon": -15.777020310982538,
        "alt_km": 583.3180468345436,
        "timestamp": "2025-12-20T07:33:51.208070+00:00",
        "meta_object_name": "COSMOS 2251 DEB",
        "meta_object_id": "1993-036ZW",
        "meta_epoch": "2025-12-19T17:10:27.801984",
        "meta_mean_motion": 15.00073844,
        "meta_eccentricity": 0.00475832,
        "meta_inclination": 74.0126,
        "meta_ra_of_asc_node": 346.4052,
        "meta_arg_of_pericenter": 112.4923,
        "meta_mean_anomaly": 248.1312,
        "meta_ephemeris_type": 0,
        "meta_classification_type": "U",
        "meta_norad_cat_id": 34752,
        "meta_element_set_no": 999,
        "meta_rev_at_epoch": 89954,
        "meta_bstar": 0.00063678005,
        "meta_mean_motion_dot": 8.095e-05,
        "meta_mean_motion_ddot": 0,
        "tle_line1": "1 34752U 93036ZW  25353.71559956  .00008095  00000+0  63678-3 0  9991",
        "tle_line2": "2 34752  74.0126 346.4052 0047583 112.4923 248.1312 15.00073844899544"
      },
      "geometry": {
        "type": "Point",
        "coordinates": [
          -15.777020310982538,
          -3.352396489239794
        ]
      }
    },
    {
      "type": "Feature",
      "properties": {
        "norad_id": 34754,
        "name": "COSMOS 2251 DEB",
        "group": "cosmos-2251-debris",
        "lat": 29.53351641197545,
        "lon": 24.25338634643812,
        "alt_km": 776.3402947116138,
        "timestamp": "2025-12-20T07:33:51.208080+00:00",
        "meta_object_name": "COSMOS 2251 DEB",
        "meta_object_id": "1993-036ZY",
        "meta_epoch": "2025-12-19T09:27:32.266944",
        "meta_mean_motion": 14.40490527,
        "meta_eccentricity": 0.002983,
        "meta_inclination": 74.0296,
        "meta_ra_of_asc_node": 215.2937,
        "meta_arg_of_pericenter": 330.1474,
        "meta_mean_anomaly": 84.4802,
        "meta_ephemeris_type": 0,
        "meta_classification_type": "U",
        "meta_norad_cat_id": 34754,
        "meta_element_set_no": 999,
        "meta_rev_at_epoch": 88229,
        "meta_bstar": 0.00015256,
        "meta_mean_motion_dot": 4.61e-06,
        "meta_mean_motion_ddot": 0,
        "tle_line1": "1 34754U 93036ZY  25353.39412346  .00000461  00000+0  15256-3 0  9996",
        "tle_line2": "2 34754  74.0296 215.2937 0029830 330.1474  84.4802 14.40490527882297"
      },
      "geometry": {
        "type": "Point",
        "coordinates": [
          24.25338634643812,
          29.53351641197545
        ]
      }
    },
    {
      "type": "Feature",
      "properties": {
        "norad_id": 34755,
        "name": "COSMOS 2251 DEB",
        "group": "cosmos-2251-debris",
        "lat": -28.89231075084168,
        "lon": -91.3063078395013,
        "alt_km": 818.6076429200484,
        "timestamp": "2025-12-20T07:33:51.208090+00:00",
        "meta_object_name": "COSMOS 2251 DEB",
        "meta_object_id": "1993-036ZZ",
        "meta_epoch": "2025-12-19T03:34:40.180224",
        "meta_mean_motion": 13.50571437,
        "meta_eccentricity": 0.04081139,
        "meta_inclination": 73.9263,
        "meta_ra_of_asc_node": 279.722,
        "meta_arg_of_pericenter": 298.4341,
        "meta_mean_anomaly": 121.4009,
        "meta_ephemeris_type": 0,
        "meta_classification_type": "U",
        "meta_norad_cat_id": 34755,
        "meta_element_set_no": 999,
        "meta_rev_at_epoch": 82610,
        "meta_bstar": 0.00072479106,
        "meta_mean_motion_dot": 7.58e-06,
        "meta_mean_motion_ddot": 0,
        "tle_line1": "1 34755U 93036ZZ  25353.14907616  .00000758  00000+0  72479-3 0  9998",
        "tle_line2": "2 34755  73.9263 279.7220 0408113 298.4341 121.4009 13.50571437826103"
      },
      "geometry": {
        "type": "Point",
        "coordinates": [
          -91.3063078395013,
          -28.89231075084168
        ]
      }
    },
    {
      "type": "Feature",
      "properties": {
        "norad_id": 34756,
        "name": "COSMOS 2251 DEB",
        "group": "cosmos-2251-debris",
        "lat": -30.596991542223044,
        "lon": 82.14650669048109,
        "alt_km": 759.913747273743,
        "timestamp": "2025-12-20T07:33:51.208100+00:00",
        "meta_object_name": "COSMOS 2251 DEB",
        "meta_object_id": "1993-036AAA",
        "meta_epoch": "2025-12-18T15:19:23.700864",
        "meta_mean_motion": 13.6725721,
        "meta_eccentricity": 0.03454365,
        "meta_inclination": 74.0031,
        "meta_ra_of_asc_node": 94.6691,
        "meta_arg_of_pericenter": 329.2106,
        "meta_mean_anomaly": 28.9139,
        "meta_ephemeris_type": 0,
        "meta_classification_type": "U",
        "meta_norad_cat_id": 34756,
        "meta_element_set_no": 999,
        "meta_rev_at_epoch": 83502,
        "meta_bstar": 0.00084968801,
        "meta_mean_motion_dot": 1.054e-05,
        "meta_mean_motion_ddot": 0,
        "tle_line1": "1 34756U 93036AAA 25352.63846876  .00001054  00000+0  84969-3 0  9999",
        "tle_line2": "2 34756  74.0031  94.6691 0345436 329.2106  28.9139 13.67257210835029"
      },
      "geometry": {
        "type": "Point",
        "coordinates": [
          82.14650669048109,
          -30.596991542223044
        ]
      }
    },
    {
      "type": "Feature",
      "properties": {
        "norad_id": 34758,
        "name": "COSMOS 2251 DEB",
        "group": "cosmos-2251-debris",
        "lat": -12.779628223465455,
        "lon": 111.01062356130467,
        "alt_km": 1271.933244394867,
        "timestamp": "2025-12-20T07:33:51.208110+00:00",
        "meta_object_name": "COSMOS 2251 DEB",
        "meta_object_id": "1993-036AAC",
        "meta_epoch": "2025-12-19T12:58:00.664608",
        "meta_mean_motion": 13.58092428,
        "meta_eccentricity": 0.03819,
        "meta_inclination": 74.1075,
        "meta_ra_of_asc_node": 288.5524,
        "meta_arg_of_pericenter": 50.6712,
        "meta_mean_anomaly": 312.7599,
        "meta_ephemeris_type": 0,
        "meta_classification_type": "U",
        "meta_norad_cat_id": 34758,
        "meta_element_set_no": 999,
        "meta_rev_at_epoch": 83002,
        "meta_bstar": 0.0013521,
        "meta_mean_motion_dot": 1.557e-05,
        "meta_mean_motion_ddot": 0,
        "tle_line1": "1 34758U 93036AAC 25353.54028547  .00001557  00000+0  13521-2 0  9992",
        "tle_line2": "2 34758  74.1075 288.5524 0381900  50.6712 312.7599 13.58092428830020"
      },
      "geometry": {
        "type": "Point",
        "coordinates": [
          111.01062356130467,
          -12.779628223465455
        ]
      }
    },
    {
      "type": "Feature",
      "properties": {
        "norad_id": 34760,
        "name": "COSMOS 2251 DEB",
        "group": "cosmos-2251-debris",
        "lat": -41.907566891301094,
        "lon": -86.01794966748963,
        "alt_km": 768.5540287649237,
        "timestamp": "2025-12-20T07:33:51.208120+00:00",
        "meta_object_name": "COSMOS 2251 DEB",
        "meta_object_id": "1993-036AAE",
        "meta_epoch": "2025-12-19T07:07:26.353056",
        "meta_mean_motion": 14.19586372,
        "meta_eccentricity": 0.0097087,
        "meta_inclination": 74.0634,
        "meta_ra_of_asc_node": 290.6575,
        "meta_arg_of_pericenter": 341.3221,
        "meta_mean_anomaly": 173.0089,
        "meta_ephemeris_type": 0,
        "meta_classification_type": "U",
        "meta_norad_cat_id": 34760,
        "meta_element_set_no": 999,
        "meta_rev_at_epoch": 86781,
        "meta_bstar": 0.00038579,
        "meta_mean_motion_dot": 8.28e-06,
        "meta_mean_motion_ddot": 0,
        "tle_line1": "1 34760U 93036AAE 25353.29683279  .00000828  00000+0  38579-3 0  9997",
        "tle_line2": "2 34760  74.0634 290.6575 0097087 341.3221 173.0089 14.19586372867811"
      },
      "geometry": {
        "type": "Point",
        "coordinates": [
          -86.01794966748963,
          -41.907566891301094
        ]
      }
    },
    {
      "type": "Feature",
      "properties": {
        "norad_id": 34761,
        "name": "COSMOS 2251 DEB",
        "group": "cosmos-2251-debris",
        "lat": 19.194876076025054,
        "lon": -5.4470087910589395,
        "alt_km": 738.4284076910981,
        "timestamp": "2025-12-20T07:33:51.208130+00:00",
        "meta_object_name": "COSMOS 2251 DEB",
        "meta_object_id": "1993-036AAF",
        "meta_epoch": "2025-12-19T09:46:04.107072",
        "meta_mean_motion": 14.38071593,
        "meta_eccentricity": 0.0036762,
        "meta_inclination": 74.029,
        "meta_ra_of_asc_node": 350.504,
        "meta_arg_of_pericenter": 22.6565,
        "meta_mean_anomaly": 337.6201,
        "meta_ephemeris_type": 0,
        "meta_classification_type": "U",
        "meta_norad_cat_id": 34761,
        "meta_element_set_no": 999,
        "meta_rev_at_epoch": 87745,
        "meta_bstar": 0.00045831,
        "meta_mean_motion_dot": 1.373e-05,
        "meta_mean_motion_ddot": 0,
        "tle_line1": "1 34761U 93036AAF 25353.40699198  .00001373  00000+0  45831-3 0  9993",
        "tle_line2": "2 34761  74.0290 350.5040 0036762  22.6565 337.6201 14.38071593877456"
      },
      "geometry": {
        "type": "Point",
        "coordinates": [
          -5.4470087910589395,
          19.194876076025054
        ]
      }
    }
  ]
}